<?xml version="1.0" encoding="UTF-8"?>
<ndm xmlns:xsi="http://www.w3.org/2001/XMLSchema-instance" xsi:noNamespaceSchemaLocation="https://sanaregistry.org/r/ndmxml_unqualified/ndmxml-2.0.0-master-2.0.xsd">
<omm id="CCSDS_OMM_VERS" version="2.0">
<header><CREATION_DATE/><ORIGINATOR/></header><body><segment><metadata><OBJECT_NAME>QIANFAN-57</OBJECT_NAME><OBJECT_ID>2025-016C</OBJECT_ID><CENTER_NAME>EARTH</CENTER_NAME><REF_FRAME>TEME</REF_FRAME><TIME_SYSTEM>UTC</TIME_SYSTEM><MEAN_ELEMENT_THEORY>SGP4</MEAN_ELEMENT_THEORY></metadata><data><meanElements><EPOCH>2026-01-15T21:28:24.190752</EPOCH><MEAN_MOTION>13.50987977</MEAN_MOTION><ECCENTRICITY>.00024728</ECCENTRICITY><INCLINATION>88.9774</INCLINATION><RA_OF_ASC_NODE>99.6780</RA_OF_ASC_NODE><ARG_OF_PERICENTER>94.8500</ARG_OF_PERICENTER><MEAN_ANOMALY>265.2934</MEAN_ANOMALY></meanElements><tleParameters><EPHEMERIS_TYPE>0</EPHEMERIS_TYPE><CLASSIFICATION_TYPE>U</CLASSIFICATION_TYPE><NORAD_CAT_ID>62787</NORAD_CAT_ID><ELEMENT_SET_NO>999</ELEMENT_SET_NO><REV_AT_EPOCH>5181</REV_AT_EPOCH><BSTAR>.18032322E-3</BSTAR><MEAN_MOTION_DOT>.128E-5</MEAN_MOTION_DOT><MEAN_MOTION_DDOT>0</MEAN_MOTION_DDOT></tleParameters></data></segment></body></omm>
<omm id="CCSDS_OMM_VERS" version="2.0">
<header><CREATION_DATE/><ORIGINATOR/></header><body><segment><metadata><OBJECT_NAME>QIANFAN-58</OBJECT_NAME><OBJECT_ID>2025-016D</OBJECT_ID><CENTER_NAME>EARTH</CENTER_NAME><REF_FRAME>TEME</REF_FRAME><TIME_SYSTEM>UTC</TIME_SYSTEM><MEAN_ELEMENT_THEORY>SGP4</MEAN_ELEMENT_THEORY></metadata><data><meanElements><EPOCH>2026-01-15T22:33:29.173536</EPOCH><MEAN_MOTION>13.50989758</MEAN_MOTION><ECCENTRICITY>.00125933</ECCENTRICITY><INCLINATION>88.9744</INCLINATION><RA_OF_ASC_NODE>99.4944</RA_OF_ASC_NODE><ARG_OF_PERICENTER>238.2275</ARG_OF_PERICENTER><MEAN_ANOMALY>121.7649</MEAN_ANOMALY></meanElements><tleParameters><EPHEMERIS_TYPE>0</EPHEMERIS_TYPE><CLASSIFICATION_TYPE>U</CLASSIFICATION_TYPE><NORAD_CAT_ID>62788</NORAD_CAT_ID><ELEMENT_SET_NO>999</ELEMENT_SET_NO><REV_AT_EPOCH>5186</REV_AT_EPOCH><BSTAR>.17364978E-3</BSTAR><MEAN_MOTION_DOT>.124E-5</MEAN_MOTION_DOT><MEAN_MOTION_DDOT>0</MEAN_MOTION_DDOT></tleParameters></data></segment></body></omm>
<omm id="CCSDS_OMM_VERS" version="2.0">
<header><CREATION_DATE/><ORIGINATOR/></header><body><segment><metadata><OBJECT_NAME>QIANFAN-59</OBJECT_NAME><OBJECT_ID>2025-016E</OBJECT_ID><CENTER_NAME>EARTH</CENTER_NAME><REF_FRAME>TEME</REF_FRAME><TIME_SYSTEM>UTC</TIME_SYSTEM><MEAN_ELEMENT_THEORY>SGP4</MEAN_ELEMENT_THEORY></metadata><data><meanElements><EPOCH>2026-01-15T21:22:23.786976</EPOCH><MEAN_MOTION>13.50986006</MEAN_MOTION><ECCENTRICITY>.0012855</ECCENTRICITY><INCLINATION>88.9767</INCLINATION><RA_OF_ASC_NODE>99.5813</RA_OF_ASC_NODE><ARG_OF_PERICENTER>242.7554</ARG_OF_PERICENTER><MEAN_ANOMALY>117.2288</MEAN_ANOMALY></meanElements><tleParameters><EPHEMERIS_TYPE>0</EPHEMERIS_TYPE><CLASSIFICATION_TYPE>U</CLASSIFICATION_TYPE><NORAD_CAT_ID>62789</NORAD_CAT_ID><ELEMENT_SET_NO>999</ELEMENT_SET_NO><REV_AT_EPOCH>5185</REV_AT_EPOCH><BSTAR>.18304257E-3</BSTAR><MEAN_MOTION_DOT>.13E-5</MEAN_MOTION_DOT><MEAN_MOTION_DDOT>0</MEAN_MOTION_DDOT></tleParameters></data></segment></body></omm>
<omm id="CCSDS_OMM_VERS" version="2.0">
<header><CREATION_DATE/><ORIGINATOR/></header><body><segment><metadata><OBJECT_NAME>QIANFAN-60</OBJECT_NAME><OBJECT_ID>2025-016F</OBJECT_ID><CENTER_NAME>EARTH</CENTER_NAME><REF_FRAME>TEME</REF_FRAME><TIME_SYSTEM>UTC</TIME_SYSTEM><MEAN_ELEMENT_THEORY>SGP4</MEAN_ELEMENT_THEORY></metadata><data><meanElements><EPOCH>2026-01-15T22:09:44.849664</EPOCH><MEAN_MOTION>13.50995219</MEAN_MOTION><ECCENTRICITY>.00144815</ECCENTRICITY><INCLINATION>88.9748</INCLINATION><RA_OF_ASC_NODE>99.5429</RA_OF_ASC_NODE><ARG_OF_PERICENTER>239.3257</ARG_OF_PERICENTER><MEAN_ANOMALY>120.6467</MEAN_ANOMALY></meanElements><tleParameters><EPHEMERIS_TYPE>0</EPHEMERIS_TYPE><CLASSIFICATION_TYPE>U</CLASSIFICATION_TYPE><NORAD_CAT_ID>62790</NORAD_CAT_ID><ELEMENT_SET_NO>999</ELEMENT_SET_NO><REV_AT_EPOCH>5184</REV_AT_EPOCH><BSTAR>.1911494E-3</BSTAR><MEAN_MOTION_DOT>.135E-5</MEAN_MOTION_DOT><MEAN_MOTION_DDOT>0</MEAN_MOTION_DDOT></tleParameters></data></segment></body></omm>
<omm id="CCSDS_OMM_VERS" version="2.0">
<header><CREATION_DATE/><ORIGINATOR/></header><body><segment><metadata><OBJECT_NAME>QIANFAN-61</OBJECT_NAME><OBJECT_ID>2025-016G</OBJECT_ID><CENTER_NAME>EARTH</CENTER_NAME><REF_FRAME>TEME</REF_FRAME><TIME_SYSTEM>UTC</TIME_SYSTEM><MEAN_ELEMENT_THEORY>SGP4</MEAN_ELEMENT_THEORY></metadata><data><meanElements><EPOCH>2026-01-15T22:57:11.006496</EPOCH><MEAN_MOTION>13.50985420</MEAN_MOTION><ECCENTRICITY>.00134356</ECCENTRICITY><INCLINATION>88.9816</INCLINATION><RA_OF_ASC_NODE>99.7257</RA_OF_ASC_NODE><ARG_OF_PERICENTER>238.2340</ARG_OF_PERICENTER><MEAN_ANOMALY>121.7503</MEAN_ANOMALY></meanElements><tleParameters><EPHEMERIS_TYPE>0</EPHEMERIS_TYPE><CLASSIFICATION_TYPE>U</CLASSIFICATION_TYPE><NORAD_CAT_ID>62791</NORAD_CAT_ID><ELEMENT_SET_NO>999</ELEMENT_SET_NO><REV_AT_EPOCH>5186</REV_AT_EPOCH><BSTAR>.18010465E-3</BSTAR><MEAN_MOTION_DOT>.128E-5</MEAN_MOTION_DOT><MEAN_MOTION_DDOT>0</MEAN_MOTION_DDOT></tleParameters></data></segment></body></omm>
<omm id="CCSDS_OMM_VERS" version="2.0">
<header><CREATION_DATE/><ORIGINATOR/></header><body><segment><metadata><OBJECT_NAME>QIANFAN-62</OBJECT_NAME><OBJECT_ID>2025-016H</OBJECT_ID><CENTER_NAME>EARTH</CENTER_NAME><REF_FRAME>TEME</REF_FRAME><TIME_SYSTEM>UTC</TIME_SYSTEM><MEAN_ELEMENT_THEORY>SGP4</MEAN_ELEMENT_THEORY></metadata><data><meanElements><EPOCH>2026-01-15T21:16:29.189280</EPOCH><MEAN_MOTION>13.50988059</MEAN_MOTION><ECCENTRICITY>.0014802</ECCENTRICITY><INCLINATION>88.9762</INCLINATION><RA_OF_ASC_NODE>99.5828</RA_OF_ASC_NODE><ARG_OF_PERICENTER>239.3455</ARG_OF_PERICENTER><MEAN_ANOMALY>120.6238</MEAN_ANOMALY></meanElements><tleParameters><EPHEMERIS_TYPE>0</EPHEMERIS_TYPE><CLASSIFICATION_TYPE>U</CLASSIFICATION_TYPE><NORAD_CAT_ID>62792</NORAD_CAT_ID><ELEMENT_SET_NO>999</ELEMENT_SET_NO><REV_AT_EPOCH>5184</REV_AT_EPOCH><BSTAR>.18109414E-3</BSTAR><MEAN_MOTION_DOT>.129E-5</MEAN_MOTION_DOT><MEAN_MOTION_DDOT>0</MEAN_MOTION_DDOT></tleParameters></data></segment></body></omm>
<omm id="CCSDS_OMM_VERS" version="2.0">
<header><CREATION_DATE/><ORIGINATOR/></header><body><segment><metadata><OBJECT_NAME>QIANFAN-63</OBJECT_NAME><OBJECT_ID>2025-016J</OBJECT_ID><CENTER_NAME>EARTH</CENTER_NAME><REF_FRAME>TEME</REF_FRAME><TIME_SYSTEM>UTC</TIME_SYSTEM><MEAN_ELEMENT_THEORY>SGP4</MEAN_ELEMENT_THEORY></metadata><data><meanElements><EPOCH>2026-01-15T21:51:59.942016</EPOCH><MEAN_MOTION>13.50986221</MEAN_MOTION><ECCENTRICITY>.0014734</ECCENTRICITY><INCLINATION>88.9769</INCLINATION><RA_OF_ASC_NODE>99.5341</RA_OF_ASC_NODE><ARG_OF_PERICENTER>245.0891</ARG_OF_PERICENTER><MEAN_ANOMALY>114.8730</MEAN_ANOMALY></meanElements><tleParameters><EPHEMERIS_TYPE>0</EPHEMERIS_TYPE><CLASSIFICATION_TYPE>U</CLASSIFICATION_TYPE><NORAD_CAT_ID>62793</NORAD_CAT_ID><ELEMENT_SET_NO>999</ELEMENT_SET_NO><REV_AT_EPOCH>5188</REV_AT_EPOCH><BSTAR>.16057932E-3</BSTAR><MEAN_MOTION_DOT>.116E-5</MEAN_MOTION_DOT><MEAN_MOTION_DDOT>0</MEAN_MOTION_DDOT></tleParameters></data></segment></body></omm>
<omm id="CCSDS_OMM_VERS" version="2.0">
<header><CREATION_DATE/><ORIGINATOR/></header><body><segment><metadata><OBJECT_NAME>QIANFAN-64</OBJECT_NAME><OBJECT_ID>2025-016K</OBJECT_ID><CENTER_NAME>EARTH</CENTER_NAME><REF_FRAME>TEME</REF_FRAME><TIME_SYSTEM>UTC</TIME_SYSTEM><MEAN_ELEMENT_THEORY>SGP4</MEAN_ELEMENT_THEORY></metadata><data><meanElements><EPOCH>2026-01-15T22:51:14.136480</EPOCH><MEAN_MOTION>13.50984759</MEAN_MOTION><ECCENTRICITY>.00128516</ECCENTRICITY><INCLINATION>88.9756</INCLINATION><RA_OF_ASC_NODE>99.4993</RA_OF_ASC_NODE><ARG_OF_PERICENTER>236.4717</ARG_OF_PERICENTER><MEAN_ANOMALY>123.5207</MEAN_ANOMALY></meanElements><tleParameters><EPHEMERIS_TYPE>0</EPHEMERIS_TYPE><CLASSIFICATION_TYPE>U</CLASSIFICATION_TYPE><NORAD_CAT_ID>62794</NORAD_CAT_ID><ELEMENT_SET_NO>999</ELEMENT_SET_NO><REV_AT_EPOCH>5188</REV_AT_EPOCH><BSTAR>.16388419E-3</BSTAR><MEAN_MOTION_DOT>.118E-5</MEAN_MOTION_DOT><MEAN_MOTION_DDOT>0</MEAN_MOTION_DDOT></tleParameters></data></segment></body></omm>

</ndm>
