QIANFAN-57              
1 62787U 25016C   26015.89472443  .00000128  00000+0  18032-3 0  9996
2 62787  88.9774  99.6780 0002472  94.8500 265.2934 13.50987977 51817
QIANFAN-58              
1 62788U 25016D   26015.93992099  .00000124  00000+0  17365-3 0  9990
2 62788  88.9744  99.4944 0012593 238.2275 121.7649 13.50989758 51866
QIANFAN-59              
1 62789U 25016E   26015.89055309  .00000130  00000+0  18304-3 0  9991
2 62789  88.9767  99.5813 0012855 242.7554 117.2288 13.50986006 51850
QIANFAN-60              
1 62790U 25016F   26015.92343576  .00000135  00000+0  19115-3 0  9999
2 62790  88.9748  99.5429 0014481 239.3257 120.6467 13.50995219 51845
QIANFAN-61              
1 62791U 25016G   26015.95637739  .00000128  00000+0  18010-3 0  9995
2 62791  88.9816  99.7257 0013435 238.2340 121.7503 13.50985420 51860
QIANFAN-62              
1 62792U 25016H   26015.88644895  .00000129  00000+0  18109-3 0  9999
2 62792  88.9762  99.5828 0014802 239.3455 120.6238 13.50988059 51843
QIANFAN-63              
1 62793U 25016J   26015.91111044  .00000116  00000+0  16058-3 0  9996
2 62793  88.9769  99.5341 0014734 245.0891 114.8730 13.50986221 51888
QIANFAN-64              
1 62794U 25016K   26015.95224695  .00000118  00000+0  16388-3 0  9996
2 62794  88.9756  99.4993 0012851 236.4717 123.5207 13.50984759 51886
